CCSDS_OMM_VERS = 2.0
CREATION_DATE  = 
ORIGINATOR     = 

OBJECT_NAME    = HULIANWANG DIGUI-137
OBJECT_ID      = 2026-007A
CENTER_NAME    = EARTH
REF_FRAME      = TEME
TIME_SYSTEM    = UTC
MEAN_ELEMENT_THEORY = SGP/SGP4

EPOCH          = 2026-02-08T13:40:39.234720
MEAN_MOTION    = 13.73645514
ECCENTRICITY   = .0002101
INCLINATION    = 50.0204
RA_OF_ASC_NODE = 191.9611
ARG_OF_PERICENTER = 181.7630
MEAN_ANOMALY   = 178.3255

EPHEMERIS_TYPE = 0
CLASSIFICATION_TYPE = U
NORAD_CAT_ID   = 67435
ELEMENT_SET_NO = 999
REV_AT_EPOCH   = 360
BSTAR          = .15901E-3
MEAN_MOTION_DOT = .9E-7
MEAN_MOTION_DDOT = 0

CCSDS_OMM_VERS = 2.0
CREATION_DATE  = 
ORIGINATOR     = 

OBJECT_NAME    = HULIANWANG DIGUI-138
OBJECT_ID      = 2026-007B
CENTER_NAME    = EARTH
REF_FRAME      = TEME
TIME_SYSTEM    = UTC
MEAN_ELEMENT_THEORY = SGP/SGP4

EPOCH          = 2026-02-08T15:34:25.749696
MEAN_MOTION    = 13.72677228
ECCENTRICITY   = .0001565
INCLINATION    = 50.0069
RA_OF_ASC_NODE = 191.6931
ARG_OF_PERICENTER = 183.8520
MEAN_ANOMALY   = 176.2359

EPHEMERIS_TYPE = 0
CLASSIFICATION_TYPE = U
NORAD_CAT_ID   = 67436
ELEMENT_SET_NO = 999
REV_AT_EPOCH   = 361
BSTAR          = .15967E-3
MEAN_MOTION_DOT = .8E-7
MEAN_MOTION_DDOT = 0

CCSDS_OMM_VERS = 2.0
CREATION_DATE  = 
ORIGINATOR     = 

OBJECT_NAME    = HULIANWANG DIGUI-139
OBJECT_ID      = 2026-007C
CENTER_NAME    = EARTH
REF_FRAME      = TEME
TIME_SYSTEM    = UTC
MEAN_ELEMENT_THEORY = SGP/SGP4

EPOCH          = 2026-02-08T17:14:25.136736
MEAN_MOTION    = 13.72825631
ECCENTRICITY   = .000045
INCLINATION    = 50.0126
RA_OF_ASC_NODE = 191.3753
ARG_OF_PERICENTER = 309.6232
MEAN_ANOMALY   = 50.4619

EPHEMERIS_TYPE = 0
CLASSIFICATION_TYPE = U
NORAD_CAT_ID   = 67437
ELEMENT_SET_NO = 999
REV_AT_EPOCH   = 362
BSTAR          = .18828E-3
MEAN_MOTION_DOT = .35E-6
MEAN_MOTION_DDOT = 0

CCSDS_OMM_VERS = 2.0
CREATION_DATE  = 
ORIGINATOR     = 

OBJECT_NAME    = HULIANWANG DIGUI-140
OBJECT_ID      = 2026-007D
CENTER_NAME    = EARTH
REF_FRAME      = TEME
TIME_SYSTEM    = UTC
MEAN_ELEMENT_THEORY = SGP/SGP4

EPOCH          = 2026-02-07T13:27:31.540608
MEAN_MOTION    = 13.73892776
ECCENTRICITY   = .00004499
INCLINATION    = 50.0042
RA_OF_ASC_NODE = 195.9376
ARG_OF_PERICENTER = 100.2709
MEAN_ANOMALY   = 259.8233

EPHEMERIS_TYPE = 0
CLASSIFICATION_TYPE = U
NORAD_CAT_ID   = 67438
ELEMENT_SET_NO = 999
REV_AT_EPOCH   = 346
BSTAR          = .18839618E-3
MEAN_MOTION_DOT = .37E-6
MEAN_MOTION_DDOT = 0

CCSDS_OMM_VERS = 2.0
CREATION_DATE  = 
ORIGINATOR     = 

OBJECT_NAME    = HULIANWANG DIGUI-141
OBJECT_ID      = 2026-007E
CENTER_NAME    = EARTH
REF_FRAME      = TEME
TIME_SYSTEM    = UTC
MEAN_ELEMENT_THEORY = SGP/SGP4

EPOCH          = 2026-02-07T13:08:54.624480
MEAN_MOTION    = 13.74661753
ECCENTRICITY   = .00004324
INCLINATION    = 50.0031
RA_OF_ASC_NODE = 195.8681
ARG_OF_PERICENTER = 103.6480
MEAN_ANOMALY   = 256.4460

EPHEMERIS_TYPE = 0
CLASSIFICATION_TYPE = U
NORAD_CAT_ID   = 67439
ELEMENT_SET_NO = 999
REV_AT_EPOCH   = 346
BSTAR          = .16774215E-3
MEAN_MOTION_DOT = .2E-6
MEAN_MOTION_DDOT = 0

CCSDS_OMM_VERS = 2.0
CREATION_DATE  = 
ORIGINATOR     = 

OBJECT_NAME    = HULIANWANG DIGUI-142
OBJECT_ID      = 2026-007F
CENTER_NAME    = EARTH
REF_FRAME      = TEME
TIME_SYSTEM    = UTC
MEAN_ELEMENT_THEORY = SGP/SGP4

EPOCH          = 2026-02-07T09:34:50.876544
MEAN_MOTION    = 13.75320254
ECCENTRICITY   = .00015746
INCLINATION    = 50.0103
RA_OF_ASC_NODE = 196.4425
ARG_OF_PERICENTER = 349.9268
MEAN_ANOMALY   = 10.1593

EPHEMERIS_TYPE = 0
CLASSIFICATION_TYPE = U
NORAD_CAT_ID   = 67440
ELEMENT_SET_NO = 999
REV_AT_EPOCH   = 344
BSTAR          = .11053598E-4
MEAN_MOTION_DOT = -.13E-5
MEAN_MOTION_DDOT = 0

CCSDS_OMM_VERS = 2.0
CREATION_DATE  = 
ORIGINATOR     = 

OBJECT_NAME    = HULIANWANG DIGUI-143
OBJECT_ID      = 2026-007G
CENTER_NAME    = EARTH
REF_FRAME      = TEME
TIME_SYSTEM    = UTC
MEAN_ELEMENT_THEORY = SGP/SGP4

EPOCH          = 2026-02-07T14:43:52.402080
MEAN_MOTION    = 13.75018638
ECCENTRICITY   = .0002397
INCLINATION    = 50.0040
RA_OF_ASC_NODE = 195.5696
ARG_OF_PERICENTER = 180.3309
MEAN_ANOMALY   = 179.7582

EPHEMERIS_TYPE = 0
CLASSIFICATION_TYPE = U
NORAD_CAT_ID   = 67441
ELEMENT_SET_NO = 999
REV_AT_EPOCH   = 347
BSTAR          = .16748979E-3
MEAN_MOTION_DOT = .2E-6
MEAN_MOTION_DDOT = 0

CCSDS_OMM_VERS = 2.0
CREATION_DATE  = 
ORIGINATOR     = 

OBJECT_NAME    = HULIANWANG DIGUI-144
OBJECT_ID      = 2026-007H
CENTER_NAME    = EARTH
REF_FRAME      = TEME
TIME_SYSTEM    = UTC
MEAN_ELEMENT_THEORY = SGP/SGP4

EPOCH          = 2026-02-07T09:25:24.076128
MEAN_MOTION    = 13.75792192
ECCENTRICITY   = .00019321
INCLINATION    = 50.0090
RA_OF_ASC_NODE = 196.4111
ARG_OF_PERICENTER = 359.9166
MEAN_ANOMALY   = 0.1726

EPHEMERIS_TYPE = 0
CLASSIFICATION_TYPE = U
NORAD_CAT_ID   = 67442
ELEMENT_SET_NO = 999
REV_AT_EPOCH   = 344
BSTAR          = .15225462E-3
MEAN_MOTION_DOT = .7E-7
MEAN_MOTION_DDOT = 0

CCSDS_OMM_VERS = 2.0
CREATION_DATE  = 
ORIGINATOR     = 

OBJECT_NAME    = HULIANWANG DIGUI-145
OBJECT_ID      = 2026-007J
CENTER_NAME    = EARTH
REF_FRAME      = TEME
TIME_SYSTEM    = UTC
MEAN_ELEMENT_THEORY = SGP/SGP4

EPOCH          = 2026-02-07T23:17:14.504064
MEAN_MOTION    = 13.74722896
ECCENTRICITY   = .00004476
INCLINATION    = 50.0093
RA_OF_ASC_NODE = 194.1176
ARG_OF_PERICENTER = 266.2774
MEAN_ANOMALY   = 93.8067

EPHEMERIS_TYPE = 0
CLASSIFICATION_TYPE = U
NORAD_CAT_ID   = 67443
ELEMENT_SET_NO = 999
REV_AT_EPOCH   = 352
BSTAR          = .16871167E-3
MEAN_MOTION_DOT = .21E-6
MEAN_MOTION_DDOT = 0

CCSDS_OMM_VERS = 2.0
CREATION_DATE  = 
ORIGINATOR     = 

OBJECT_NAME    = CZ-8A R/B
OBJECT_ID      = 2026-007K
CENTER_NAME    = EARTH
REF_FRAME      = TEME
TIME_SYSTEM    = UTC
MEAN_ELEMENT_THEORY = SGP/SGP4

EPOCH          = 2026-02-08T18:36:06.410880
MEAN_MOTION    = 14.13552291
ECCENTRICITY   = .009223
INCLINATION    = 50.0089
RA_OF_ASC_NODE = 186.3328
ARG_OF_PERICENTER = 172.6763
MEAN_ANOMALY   = 187.5516

EPHEMERIS_TYPE = 0
CLASSIFICATION_TYPE = U
NORAD_CAT_ID   = 67444
ELEMENT_SET_NO = 999
REV_AT_EPOCH   = 369
BSTAR          = .1046E-3
MEAN_MOTION_DOT = .51E-6
MEAN_MOTION_DDOT = 0

CCSDS_OMM_VERS = 2.0
CREATION_DATE  = 
ORIGINATOR     = 

OBJECT_NAME    = STARLINK-36542
OBJECT_ID      = 2026-008A
CENTER_NAME    = EARTH
REF_FRAME      = TEME
TIME_SYSTEM    = UTC
MEAN_ELEMENT_THEORY = SGP/SGP4

EPOCH          = 2026-02-08T20:00:01.999008
MEAN_MOTION    = 15.50485356
ECCENTRICITY   = .000071
INCLINATION    = 43.0004
RA_OF_ASC_NODE = 9.5717
ARG_OF_PERICENTER = 248.1258
MEAN_ANOMALY   = 95.8369

EPHEMERIS_TYPE = 0
CLASSIFICATION_TYPE = U
NORAD_CAT_ID   = 67445
ELEMENT_SET_NO = 999
REV_AT_EPOCH   = 515
BSTAR          = .15913E-2
MEAN_MOTION_DOT = .93823E-3
MEAN_MOTION_DDOT = 0

CCSDS_OMM_VERS = 2.0
CREATION_DATE  = 
ORIGINATOR     = 

OBJECT_NAME    = STARLINK-36539
OBJECT_ID      = 2026-008B
CENTER_NAME    = EARTH
REF_FRAME      = TEME
TIME_SYSTEM    = UTC
MEAN_ELEMENT_THEORY = SGP/SGP4

EPOCH          = 2026-02-08T20:00:01.999008
MEAN_MOTION    = 15.50563059
ECCENTRICITY   = .0001241
INCLINATION    = 43.0003
RA_OF_ASC_NODE = 9.4751
ARG_OF_PERICENTER = 259.4887
MEAN_ANOMALY   = 123.8026

EPHEMERIS_TYPE = 0
CLASSIFICATION_TYPE = U
NORAD_CAT_ID   = 67446
ELEMENT_SET_NO = 999
REV_AT_EPOCH   = 515
BSTAR          = -.71785E-4
MEAN_MOTION_DOT = -.4548E-4
MEAN_MOTION_DDOT = 0

